0 IRIDIUM 33 DEB
1 35739U 97051RS  13282.91676045  .00008158  00000-0  32534-2 0  3594
2 35739 086.4120 151.8899 0085922 077.7987 339.4632 14.26421419234229
0 IRIDIUM 33 DEB
1 35739U 97051RS  13287.34863545  .00007192  00000-0  28647-2 0  3619
2 35739 086.4120 150.0695 0085995 063.9692 057.6600 14.26474759234852
0 IRIDIUM 33 DEB
1 35739U 97051RS  13288.40038549  .00010463  00000-0  41673-2 0  3625
2 35739 086.4118 149.6374 0086010 060.6849 058.6594 14.26495881235004
0 IRIDIUM 33 DEB
1 35739U 97051RS  13289.93289620  .00008751  00000-0  34831-2 0  3638
2 35739 086.4118 149.0071 0086084 055.8441 008.6684 14.26518400235229
0 IRIDIUM 33 DEB
1 35739U 97051RS  13292.87768909  .00008254  00000-0  32822-2 0  3644
2 35739 086.4115 147.7965 0086190 046.6300 011.5303 14.26561870235649
0 IRIDIUM 33 DEB
1 35739U 97051RS  13295.34524542  .00009405  00000-0  37383-2 0  3659
2 35739 086.4115 146.7829 0086090 038.8837 083.9269 14.26595171235997
